{
    "links": {
        "self": "http://www.neowsapp.com/rest/v1/neo/3589138?api_key=iIulBulltgU6a56xZRHN4H3l9WmuAYTsLGpBGhQ2"
    },
    "id": "3589138",
    "neo_reference_id": "3589138",
    "name": "(2011 WF44)",
    "designation": "2011 WF44",
    "nasa_jpl_url": "http://ssd.jpl.nasa.gov/sbdb.cgi?sstr=3589138",
    "absolute_magnitude_h": 25.3,
    "estimated_diameter": {
        "kilometers": {
            "estimated_diameter_min": 0.0231502122,
            "estimated_diameter_max": 0.0517654482
        },
        "meters": {
            "estimated_diameter_min": 23.150212221,
            "estimated_diameter_max": 51.7654482198
        },
        "miles": {
            "estimated_diameter_min": 0.0143848705,
            "estimated_diameter_max": 0.0321655483
        },
        "feet": {
            "estimated_diameter_min": 75.9521422633,
            "estimated_diameter_max": 169.8341531374
        }
    },
    "is_potentially_hazardous_asteroid": false,
    "close_approach_data": [
        {
            "close_approach_date": "2011-11-19",
            "close_approach_date_full": "2011-Nov-19 13:58",
            "epoch_date_close_approach": 1321711080000,
            "relative_velocity": {
                "kilometers_per_second": "14.8352362332",
                "kilometers_per_hour": "53406.850439434",
                "miles_per_hour": "33184.9399299916"
            },
            "miss_distance": {
                "astronomical": "0.0066043834",
                "lunar": "2.5691051426",
                "kilometers": "988001.689303358",
                "miles": "613915.7820800204"
            },
            "orbiting_body": "Earth"
        },
        {
            "close_approach_date": "2011-11-19",
            "close_approach_date_full": "2011-Nov-19 14:21",
            "epoch_date_close_approach": 1321712460000,
            "relative_velocity": {
                "kilometers_per_second": "15.8731609614",
                "kilometers_per_hour": "57143.3794609813",
                "miles_per_hour": "35506.6737545192"
            },
            "miss_distance": {
                "astronomical": "0.0043600248",
                "lunar": "1.6960496472",
                "kilometers": "652250.423227176",
                "miles": "405289.6194639888"
            },
            "orbiting_body": "Moon"
        }
    ],
    "orbital_data": {
        "orbit_id": "8",
        "orbit_determination_date": "2017-04-06 08:51:53",
        "first_observation_date": "2011-11-26",
        "last_observation_date": "2011-12-01",
        "data_arc_in_days": 5,
        "observations_used": 37,
        "orbit_uncertainty": "8",
        "minimum_orbit_intersection": ".00305924",
        "jupiter_tisserand_invariant": "3.705",
        "epoch_osculation": "2455895.5",
        "eccentricity": ".58866874151218",
        "semi_major_axis": "1.907461669098473",
        "inclination": "3.800492515798064",
        "ascending_node_longitude": "234.5709772637489",
        "orbital_period": "962.2372296638933",
        "perihelion_distance": ".7845986088675525",
        "perihelion_argument": "119.077470341869",
        "aphelion_distance": "3.030324729329393",
        "perihelion_time": "2455843.387454736344",
        "mean_anomaly": "19.49676827768258",
        "mean_motion": ".3741281140470391",
        "equinox": "J2000",
        "orbit_class": {
            "orbit_class_type": "APO",
            "orbit_class_description": "Near-Earth asteroid orbits which cross the Earth’s orbit similar to that of 1862 Apollo",
            "orbit_class_range": "a (semi-major axis) > 1.0 AU; q (perihelion) < 1.017 AU"
        }
    },
    "is_sentry_object": false
}